{
  "type": "FeatureCollection",
  "features": [
    {
      "type": "Feature",
      "geometry": {
        "type": "Polygon",
        "coordinates": [
          [
            [
              -167.8004,
              -77.3302
            ],
            [
              -160.6004,
              -77.3302
            ],
            [
              -160.6004,
              -74.9302
            ],
            [
              -167.8004,
              -74.9302
            ],
            [
              -167.8004,
              -77.3302
            ]
          ]
        ]
      },
      "properties": {
        "risk": 0.586
      }
    },
    {
      "type": "Feature",
      "geometry": {
        "type": "Polygon",
        "coordinates": [
          [
            [
              -122.4948,
              -76.907
            ],
            [
              -115.2948,
              -76.907
            ],
            [
              -115.2948,
              -74.507
            ],
            [
              -122.4948,
              -74.507
            ],
            [
              -122.4948,
              -76.907
            ]
          ]
        ]
      },
      "properties": {
        "risk": 0.595
      }
    },
    {
      "type": "Feature",
      "geometry": {
        "type": "Polygon",
        "coordinates": [
          [
            [
              -76.4776,
              -80.7291
            ],
            [
              -69.2776,
              -80.7291
            ],
            [
              -69.2776,
              -78.3291
            ],
            [
              -76.4776,
              -78.3291
            ],
            [
              -76.4776,
              -80.7291
            ]
          ]
        ]
      },
      "properties": {
        "risk": 0.701
      }
    },
    {
      "type": "Feature",
      "geometry": {
        "type": "Polygon",
        "coordinates": [
          [
            [
              -47.3017,
              -77.3943
            ],
            [
              -40.1017,
              -77.3943
            ],
            [
              -40.1017,
              -74.9943
            ],
            [
              -47.3017,
              -74.9943
            ],
            [
              -47.3017,
              -77.3943
            ]
          ]
        ]
      },
      "properties": {
        "risk": 0.637
      }
    },
    {
      "type": "Feature",
      "geometry": {
        "type": "Polygon",
        "coordinates": [
          [
            [
              -23.3861,
              -80.5594
            ],
            [
              -16.1861,
              -80.5594
            ],
            [
              -16.1861,
              -78.1594
            ],
            [
              -23.3861,
              -78.1594
            ],
            [
              -23.3861,
              -80.5594
            ]
          ]
        ]
      },
      "properties": {
        "risk": 0.72
      }
    },
    {
      "type": "Feature",
      "geometry": {
        "type": "Polygon",
        "coordinates": [
          [
            [
              29.7635,
              -79.346
            ],
            [
              36.9635,
              -79.346
            ],
            [
              36.9635,
              -76.946
            ],
            [
              29.7635,
              -76.946
            ],
            [
              29.7635,
              -79.346
            ]
          ]
        ]
      },
      "properties": {
        "risk": 0.686
      }
    },
    {
      "type": "Feature",
      "geometry": {
        "type": "Polygon",
        "coordinates": [
          [
            [
              62.0194,
              -77.9807
            ],
            [
              69.2194,
              -77.9807
            ],
            [
              69.2194,
              -75.5807
            ],
            [
              62.0194,
              -75.5807
            ],
            [
              62.0194,
              -77.9807
            ]
          ]
        ]
      },
      "properties": {
        "risk": 0.642
      }
    },
    {
      "type": "Feature",
      "geometry": {
        "type": "Polygon",
        "coordinates": [
          [
            [
              76.5806,
              -78.9829
            ],
            [
              83.7806,
              -78.9829
            ],
            [
              83.7806,
              -76.5829
            ],
            [
              76.5806,
              -76.5829
            ],
            [
              76.5806,
              -78.9829
            ]
          ]
        ]
      },
      "properties": {
        "risk": 0.658
      }
    },
    {
      "type": "Feature",
      "geometry": {
        "type": "Polygon",
        "coordinates": [
          [
            [
              106.6974,
              -78.4271
            ],
            [
              113.8974,
              -78.4271
            ],
            [
              113.8974,
              -76.0271
            ],
            [
              106.6974,
              -76.0271
            ],
            [
              106.6974,
              -78.4271
            ]
          ]
        ]
      },
      "properties": {
        "risk": 0.633
      }
    },
    {
      "type": "Feature",
      "geometry": {
        "type": "Polygon",
        "coordinates": [
          [
            [
              163.1399,
              -77.0618
            ],
            [
              170.3399,
              -77.0618
            ],
            [
              170.3399,
              -74.6618
            ],
            [
              163.1399,
              -74.6618
            ],
            [
              163.1399,
              -77.0618
            ]
          ]
        ]
      },
      "properties": {
        "risk": 0.579
      }
    },
    {
      "type": "Feature",
      "geometry": {
        "type": "Polygon",
        "coordinates": [
          [
            [
              -170.8371,
              -72.4096
            ],
            [
              -163.6371,
              -72.4096
            ],
            [
              -163.6371,
              -70.0096
            ],
            [
              -170.8371,
              -70.0096
            ],
            [
              -170.8371,
              -72.4096
            ]
          ]
        ]
      },
      "properties": {
        "risk": 0.473
      }
    },
    {
      "type": "Feature",
      "geometry": {
        "type": "Polygon",
        "coordinates": [
          [
            [
              -115.4476,
              -71.3465
            ],
            [
              -108.2476,
              -71.3465
            ],
            [
              -108.2476,
              -68.9465
            ],
            [
              -115.4476,
              -68.9465
            ],
            [
              -115.4476,
              -71.3465
            ]
          ]
        ]
      },
      "properties": {
        "risk": 0.471
      }
    },
    {
      "type": "Feature",
      "geometry": {
        "type": "Polygon",
        "coordinates": [
          [
            [
              -104.593,
              -72.3081
            ],
            [
              -97.393,
              -72.3081
            ],
            [
              -97.393,
              -69.9081
            ],
            [
              -104.593,
              -69.9081
            ],
            [
              -104.593,
              -72.3081
            ]
          ]
        ]
      },
      "properties": {
        "risk": 0.497
      }
    },
    {
      "type": "Feature",
      "geometry": {
        "type": "Polygon",
        "coordinates": [
          [
            [
              -74.0231,
              -73.8664
            ],
            [
              -66.8231,
              -73.8664
            ],
            [
              -66.8231,
              -71.4664
            ],
            [
              -74.0231,
              -71.4664
            ],
            [
              -74.0231,
              -73.8664
            ]
          ]
        ]
      },
      "properties": {
        "risk": 0.546
      }
    },
    {
      "type": "Feature",
      "geometry": {
        "type": "Polygon",
        "coordinates": [
          [
            [
              -15.0102,
              -75.4286
            ],
            [
              -7.8102,
              -75.4286
            ],
            [
              -7.8102,
              -73.0286
            ],
            [
              -15.0102,
              -73.0286
            ],
            [
              -15.0102,
              -75.4286
            ]
          ]
        ]
      },
      "properties": {
        "risk": 0.606
      }
    },
    {
      "type": "Feature",
      "geometry": {
        "type": "Polygon",
        "coordinates": [
          [
            [
              31.2304,
              -72.4762
            ],
            [
              38.4304,
              -72.4762
            ],
            [
              38.4304,
              -70.0762
            ],
            [
              31.2304,
              -70.0762
            ],
            [
              31.2304,
              -72.4762
            ]
          ]
        ]
      },
      "properties": {
        "risk": 0.529
      }
    },
    {
      "type": "Feature",
      "geometry": {
        "type": "Polygon",
        "coordinates": [
          [
            [
              45.7365,
              -74.5709
            ],
            [
              52.9365,
              -74.5709
            ],
            [
              52.9365,
              -72.1709
            ],
            [
              45.7365,
              -72.1709
            ],
            [
              45.7365,
              -74.5709
            ]
          ]
        ]
      },
      "properties": {
        "risk": 0.571
      }
    },
    {
      "type": "Feature",
      "geometry": {
        "type": "Polygon",
        "coordinates": [
          [
            [
              75.221,
              -73.8522
            ],
            [
              82.421,
              -73.8522
            ],
            [
              82.421,
              -71.4522
            ],
            [
              75.221,
              -71.4522
            ],
            [
              75.221,
              -73.8522
            ]
          ]
        ]
      },
      "properties": {
        "risk": 0.542
      }
    },
    {
      "type": "Feature",
      "geometry": {
        "type": "Polygon",
        "coordinates": [
          [
            [
              121.5254,
              -75.5504
            ],
            [
              128.7254,
              -75.5504
            ],
            [
              128.7254,
              -73.1504
            ],
            [
              121.5254,
              -73.1504
            ],
            [
              121.5254,
              -75.5504
            ]
          ]
        ]
      },
      "properties": {
        "risk": 0.561
      }
    },
    {
      "type": "Feature",
      "geometry": {
        "type": "Polygon",
        "coordinates": [
          [
            [
              164.5133,
              -75.0655
            ],
            [
              171.7133,
              -75.0655
            ],
            [
              171.7133,
              -72.6655
            ],
            [
              164.5133,
              -72.6655
            ],
            [
              164.5133,
              -75.0655
            ]
          ]
        ]
      },
      "properties": {
        "risk": 0.533
      }
    },
    {
      "type": "Feature",
      "geometry": {
        "type": "Polygon",
        "coordinates": [
          [
            [
              -153.6236,
              -69.0142
            ],
            [
              -146.4236,
              -69.0142
            ],
            [
              -146.4236,
              -66.6142
            ],
            [
              -153.6236,
              -66.6142
            ],
            [
              -153.6236,
              -69.0142
            ]
          ]
        ]
      },
      "properties": {
        "risk": 0.402
      }
    },
    {
      "type": "Feature",
      "geometry": {
        "type": "Polygon",
        "coordinates": [
          [
            [
              -136.3548,
              -67.6987
            ],
            [
              -129.1548,
              -67.6987
            ],
            [
              -129.1548,
              -65.2987
            ],
            [
              -136.3548,
              -65.2987
            ],
            [
              -136.3548,
              -67.6987
            ]
          ]
        ]
      },
      "properties": {
        "risk": 0.379
      }
    },
    {
      "type": "Feature",
      "geometry": {
        "type": "Polygon",
        "coordinates": [
          [
            [
              -82.6285,
              -67.0387
            ],
            [
              -75.4285,
              -67.0387
            ],
            [
              -75.4285,
              -64.6387
            ],
            [
              -82.6285,
              -64.6387
            ],
            [
              -82.6285,
              -67.0387
            ]
          ]
        ]
      },
      "properties": {
        "risk": 0.386
      }
    },
    {
      "type": "Feature",
      "geometry": {
        "type": "Polygon",
        "coordinates": [
          [
            [
              -65.2202,
              -69.2626
            ],
            [
              -58.0202,
              -69.2626
            ],
            [
              -58.0202,
              -66.8626
            ],
            [
              -65.2202,
              -66.8626
            ],
            [
              -65.2202,
              -69.2626
            ]
          ]
        ]
      },
      "properties": {
        "risk": 0.445
      }
    },
    {
      "type": "Feature",
      "geometry": {
        "type": "Polygon",
        "coordinates": [
          [
            [
              -34.5689,
              -67.7875
            ],
            [
              -27.3689,
              -67.7875
            ],
            [
              -27.3689,
              -65.3875
            ],
            [
              -34.5689,
              -65.3875
            ],
            [
              -34.5689,
              -67.7875
            ]
          ]
        ]
      },
      "properties": {
        "risk": 0.424
      }
    },
    {
      "type": "Feature",
      "geometry": {
        "type": "Polygon",
        "coordinates": [
          [
            [
              -3.335,
              -70.2005
            ],
            [
              3.865,
              -70.2005
            ],
            [
              3.865,
              -67.8005
            ],
            [
              -3.335,
              -67.8005
            ],
            [
              -3.335,
              -70.2005
            ]
          ]
        ]
      },
      "properties": {
        "risk": 0.492
      }
    },
    {
      "type": "Feature",
      "geometry": {
        "type": "Polygon",
        "coordinates": [
          [
            [
              56.3346,
              -67.2654
            ],
            [
              63.5346,
              -67.2654
            ],
            [
              63.5346,
              -64.8654
            ],
            [
              56.3346,
              -64.8654
            ],
            [
              56.3346,
              -67.2654
            ]
          ]
        ]
      },
      "properties": {
        "risk": 0.4
      }
    },
    {
      "type": "Feature",
      "geometry": {
        "type": "Polygon",
        "coordinates": [
          [
            [
              96.5062,
              -67.6742
            ],
            [
              103.7062,
              -67.6742
            ],
            [
              103.7062,
              -65.2742
            ],
            [
              96.5062,
              -65.2742
            ],
            [
              96.5062,
              -67.6742
            ]
          ]
        ]
      },
      "properties": {
        "risk": 0.392
      }
    },
    {
      "type": "Feature",
      "geometry": {
        "type": "Polygon",
        "coordinates": [
          [
            [
              124.8747,
              -68.9054
            ],
            [
              132.0747,
              -68.9054
            ],
            [
              132.0747,
              -66.5054
            ],
            [
              124.8747,
              -66.5054
            ],
            [
              124.8747,
              -68.9054
            ]
          ]
        ]
      },
      "properties": {
        "risk": 0.409
      }
    },
    {
      "type": "Feature",
      "geometry": {
        "type": "Polygon",
        "coordinates": [
          [
            [
              144.5231,
              -70.501
            ],
            [
              151.7231,
              -70.501
            ],
            [
              151.7231,
              -68.101
            ],
            [
              144.5231,
              -68.101
            ],
            [
              144.5231,
              -70.501
            ]
          ]
        ]
      },
      "properties": {
        "risk": 0.437
      }
    },
    {
      "type": "Feature",
      "geometry": {
        "type": "Polygon",
        "coordinates": [
          [
            [
              -166.6405,
              -62.858
            ],
            [
              -159.4405,
              -62.858
            ],
            [
              -159.4405,
              -60.458
            ],
            [
              -166.6405,
              -60.458
            ],
            [
              -166.6405,
              -62.858
            ]
          ]
        ]
      },
      "properties": {
        "risk": 0.256
      }
    },
    {
      "type": "Feature",
      "geometry": {
        "type": "Polygon",
        "coordinates": [
          [
            [
              -120.06,
              -63.3738
            ],
            [
              -112.86,
              -63.3738
            ],
            [
              -112.86,
              -60.9738
            ],
            [
              -120.06,
              -60.9738
            ],
            [
              -120.06,
              -63.3738
            ]
          ]
        ]
      },
      "properties": {
        "risk": 0.288
      }
    },
    {
      "type": "Feature",
      "geometry": {
        "type": "Polygon",
        "coordinates": [
          [
            [
              -91.6711,
              -63.0264
            ],
            [
              -84.4711,
              -63.0264
            ],
            [
              -84.4711,
              -60.6264
            ],
            [
              -91.6711,
              -60.6264
            ],
            [
              -91.6711,
              -63.0264
            ]
          ]
        ]
      },
      "properties": {
        "risk": 0.291
      }
    },
    {
      "type": "Feature",
      "geometry": {
        "type": "Polygon",
        "coordinates": [
          [
            [
              -64.6578,
              -63.404
            ],
            [
              -57.4578,
              -63.404
            ],
            [
              -57.4578,
              -61.004
            ],
            [
              -64.6578,
              -61.004
            ],
            [
              -64.6578,
              -63.404
            ]
          ]
        ]
      },
      "properties": {
        "risk": 0.311
      }
    },
    {
      "type": "Feature",
      "geometry": {
        "type": "Polygon",
        "coordinates": [
          [
            [
              -23.8782,
              -66.0459
            ],
            [
              -16.6782,
              -66.0459
            ],
            [
              -16.6782,
              -63.6459
            ],
            [
              -23.8782,
              -63.6459
            ],
            [
              -23.8782,
              -66.0459
            ]
          ]
        ]
      },
      "properties": {
        "risk": 0.389
      }
    },
    {
      "type": "Feature",
      "geometry": {
        "type": "Polygon",
        "coordinates": [
          [
            [
              11.107,
              -65.1271
            ],
            [
              18.307,
              -65.1271
            ],
            [
              18.307,
              -62.7271
            ],
            [
              11.107,
              -62.7271
            ],
            [
              11.107,
              -65.1271
            ]
          ]
        ]
      },
      "properties": {
        "risk": 0.37
      }
    },
    {
      "type": "Feature",
      "geometry": {
        "type": "Polygon",
        "coordinates": [
          [
            [
              40.8218,
              -61.933
            ],
            [
              48.0218,
              -61.933
            ],
            [
              48.0218,
              -59.533
            ],
            [
              40.8218,
              -59.533
            ],
            [
              40.8218,
              -61.933
            ]
          ]
        ]
      },
      "properties": {
        "risk": 0.285
      }
    },
    {
      "type": "Feature",
      "geometry": {
        "type": "Polygon",
        "coordinates": [
          [
            [
              78.5298,
              -65.9085
            ],
            [
              85.7298,
              -65.9085
            ],
            [
              85.7298,
              -63.5085
            ],
            [
              78.5298,
              -63.5085
            ],
            [
              78.5298,
              -65.9085
            ]
          ]
        ]
      },
      "properties": {
        "risk": 0.36
      }
    },
    {
      "type": "Feature",
      "geometry": {
        "type": "Polygon",
        "coordinates": [
          [
            [
              128.229,
              -64.732
            ],
            [
              135.429,
              -64.732
            ],
            [
              135.429,
              -62.332
            ],
            [
              128.229,
              -62.332
            ],
            [
              128.229,
              -64.732
            ]
          ]
        ]
      },
      "properties": {
        "risk": 0.312
      }
    },
    {
      "type": "Feature",
      "geometry": {
        "type": "Polygon",
        "coordinates": [
          [
            [
              168.6203,
              -63.4148
            ],
            [
              175.8203,
              -63.4148
            ],
            [
              175.8203,
              -61.0148
            ],
            [
              168.6203,
              -61.0148
            ],
            [
              168.6203,
              -63.4148
            ]
          ]
        ]
      },
      "properties": {
        "risk": 0.265
      }
    },
    {
      "type": "Feature",
      "geometry": {
        "type": "Polygon",
        "coordinates": [
          [
            [
              -168.9701,
              -57.8784
            ],
            [
              -161.7701,
              -57.8784
            ],
            [
              -161.7701,
              -55.4784
            ],
            [
              -168.9701,
              -55.4784
            ],
            [
              -168.9701,
              -57.8784
            ]
          ]
        ]
      },
      "properties": {
        "risk": 0.142
      }
    },
    {
      "type": "Feature",
      "geometry": {
        "type": "Polygon",
        "coordinates": [
          [
            [
              -141.589,
              -57.1299
            ],
            [
              -134.389,
              -57.1299
            ],
            [
              -134.389,
              -54.7299
            ],
            [
              -141.589,
              -54.7299
            ],
            [
              -141.589,
              -57.1299
            ]
          ]
        ]
      },
      "properties": {
        "risk": 0.136
      }
    },
    {
      "type": "Feature",
      "geometry": {
        "type": "Polygon",
        "coordinates": [
          [
            [
              -108.3583,
              -61.0864
            ],
            [
              -101.1583,
              -61.0864
            ],
            [
              -101.1583,
              -58.6864
            ],
            [
              -108.3583,
              -58.6864
            ],
            [
              -108.3583,
              -61.0864
            ]
          ]
        ]
      },
      "properties": {
        "risk": 0.24
      }
    },
    {
      "type": "Feature",
      "geometry": {
        "type": "Polygon",
        "coordinates": [
          [
            [
              -58.9724,
              -57.5882
            ],
            [
              -51.7724,
              -57.5882
            ],
            [
              -51.7724,
              -55.1882
            ],
            [
              -58.9724,
              -55.1882
            ],
            [
              -58.9724,
              -57.5882
            ]
          ]
        ]
      },
      "properties": {
        "risk": 0.181
      }
    },
    {
      "type": "Feature",
      "geometry": {
        "type": "Polygon",
        "coordinates": [
          [
            [
              -21.5624,
              -60.3936
            ],
            [
              -14.3624,
              -60.3936
            ],
            [
              -14.3624,
              -57.9936
            ],
            [
              -21.5624,
              -57.9936
            ],
            [
              -21.5624,
              -60.3936
            ]
          ]
        ]
      },
      "properties": {
        "risk": 0.26
      }
    },
    {
      "type": "Feature",
      "geometry": {
        "type": "Polygon",
        "coordinates": [
          [
            [
              21.4675,
              -60.4384
            ],
            [
              28.6675,
              -60.4384
            ],
            [
              28.6675,
              -58.0384
            ],
            [
              21.4675,
              -58.0384
            ],
            [
              21.4675,
              -60.4384
            ]
          ]
        ]
      },
      "properties": {
        "risk": 0.259
      }
    },
    {
      "type": "Feature",
      "geometry": {
        "type": "Polygon",
        "coordinates": [
          [
            [
              46.1168,
              -58.9692
            ],
            [
              53.3168,
              -58.9692
            ],
            [
              53.3168,
              -56.5692
            ],
            [
              46.1168,
              -56.5692
            ],
            [
              46.1168,
              -58.9692
            ]
          ]
        ]
      },
      "properties": {
        "risk": 0.215
      }
    },
    {
      "type": "Feature",
      "geometry": {
        "type": "Polygon",
        "coordinates": [
          [
            [
              91.0902,
              -59.6924
            ],
            [
              98.2902,
              -59.6924
            ],
            [
              98.2902,
              -57.2924
            ],
            [
              91.0902,
              -57.2924
            ],
            [
              91.0902,
              -59.6924
            ]
          ]
        ]
      },
      "properties": {
        "risk": 0.213
      }
    },
    {
      "type": "Feature",
      "geometry": {
        "type": "Polygon",
        "coordinates": [
          [
            [
              107.5554,
              -59.3909
            ],
            [
              114.7554,
              -59.3909
            ],
            [
              114.7554,
              -56.9909
            ],
            [
              107.5554,
              -56.9909
            ],
            [
              107.5554,
              -59.3909
            ]
          ]
        ]
      },
      "properties": {
        "risk": 0.199
      }
    },
    {
      "type": "Feature",
      "geometry": {
        "type": "Polygon",
        "coordinates": [
          [
            [
              175.0283,
              -60.61
            ],
            [
              180,
              -60.61
            ],
            [
              180,
              -58.21
            ],
            [
              175.0283,
              -58.21
            ],
            [
              175.0283,
              -60.61
            ]
          ]
        ]
      },
      "properties": {
        "risk": 0.198
      }
    }
  ]
}
